{
  "type": "FeatureCollection",
  "features": [
    {
      "type": "Feature",
      "properties": {
        "norad_id": 66521,
        "name": "STARLINK-35915",
        "group": "last-30-days",
        "lat": -35.167622294112405,
        "lon": 16.766797874143503,
        "alt_km": 417.3087928560626,
        "timestamp": "2025-12-10T16:57:10.415707+00:00",
        "meta_object_name": "STARLINK-35915",
        "meta_object_id": "2025-265F",
        "meta_epoch": "2025-12-10T12:00:02.998944",
        "meta_mean_motion": 15.5062406,
        "meta_eccentricity": 0.0001307,
        "meta_inclination": 42.9996,
        "meta_ra_of_asc_node": 67.0971,
        "meta_arg_of_pericenter": 268.5293,
        "meta_mean_anomaly": 320.6764,
        "meta_ephemeris_type": 0,
        "meta_classification_type": "U",
        "meta_norad_cat_id": 66521,
        "meta_element_set_no": 999,
        "meta_rev_at_epoch": 463,
        "meta_bstar": -0.0022572,
        "meta_mean_motion_dot": -0.00130779,
        "meta_mean_motion_ddot": 0,
        "tle_line1": "1 66521U 25265F   25344.50003471 -.00130779  00000+0 -22572-2 0  9996",
        "tle_line2": "2 66521  42.9996  67.0971 0001307 268.5293 320.6764 15.50624060  4637"
      },
      "geometry": {
        "type": "Point",
        "coordinates": [
          16.766797874143503,
          -35.167622294112405
        ]
      }
    },
    {
      "type": "Feature",
      "properties": {
        "norad_id": 66522,
        "name": "STARLINK-35946",
        "group": "last-30-days",
        "lat": -34.29738990483001,
        "lon": 18.832379534155987,
        "alt_km": 417.06982771139064,
        "timestamp": "2025-12-10T16:57:10.415717+00:00",
        "meta_object_name": "STARLINK-35946",
        "meta_object_id": "2025-265G",
        "meta_epoch": "2025-12-10T12:00:02.998944",
        "meta_mean_motion": 15.50637805,
        "meta_eccentricity": 0.000151,
        "meta_inclination": 42.9995,
        "meta_ra_of_asc_node": 67.0927,
        "meta_arg_of_pericenter": 275.9467,
        "meta_mean_anomaly": 315.1642,
        "meta_ephemeris_type": 0,
        "meta_classification_type": "U",
        "meta_norad_cat_id": 66522,
        "meta_element_set_no": 999,
        "meta_rev_at_epoch": 463,
        "meta_bstar": -0.002477,
        "meta_mean_motion_dot": -0.0014333,
        "meta_mean_motion_ddot": 0,
        "tle_line1": "1 66522U 25265G   25344.50003471 -.00143330  00000+0 -24770-2 0  9996",
        "tle_line2": "2 66522  42.9995  67.0927 0001510 275.9467 315.1642 15.50637805  4634"
      },
      "geometry": {
        "type": "Point",
        "coordinates": [
          18.832379534155987,
          -34.29738990483001
        ]
      }
    },
    {
      "type": "Feature",
      "properties": {
        "norad_id": 66523,
        "name": "STARLINK-35969",
        "group": "last-30-days",
        "lat": -33.36894463843789,
        "lon": 20.907798873501303,
        "alt_km": 416.7278860443257,
        "timestamp": "2025-12-10T16:57:10.415729+00:00",
        "meta_object_name": "STARLINK-35969",
        "meta_object_id": "2025-265H",
        "meta_epoch": "2025-12-10T12:00:02.998944",
        "meta_mean_motion": 15.50772568,
        "meta_eccentricity": 0.0001806,
        "meta_inclination": 42.9998,
        "meta_ra_of_asc_node": 67.0882,
        "meta_arg_of_pericenter": 280.4676,
        "meta_mean_anomaly": 312.5486,
        "meta_ephemeris_type": 0,
        "meta_classification_type": "U",
        "meta_norad_cat_id": 66523,
        "meta_element_set_no": 999,
        "meta_rev_at_epoch": 463,
        "meta_bstar": -0.0071861,
        "meta_mean_motion_dot": -0.00403708,
        "meta_mean_motion_ddot": 0,
        "tle_line1": "1 66523U 25265H   25344.50003471 -.00403708  00000+0 -71861-2 0  9998",
        "tle_line2": "2 66523  42.9998  67.0882 0001806 280.4676 312.5486 15.50772568  4632"
      },
      "geometry": {
        "type": "Point",
        "coordinates": [
          20.907798873501303,
          -33.36894463843789
        ]
      }
    },
    {
      "type": "Feature",
      "properties": {
        "norad_id": 66524,
        "name": "STARLINK-35687",
        "group": "last-30-days",
        "lat": -32.47880881657827,
        "lon": 22.78894089386633,
        "alt_km": 416.88475031214057,
        "timestamp": "2025-12-10T16:57:10.415739+00:00",
        "meta_object_name": "STARLINK-35687",
        "meta_object_id": "2025-265J",
        "meta_epoch": "2025-12-10T12:00:02.998944",
        "meta_mean_motion": 15.50578756,
        "meta_eccentricity": 0.0001999,
        "meta_inclination": 42.9998,
        "meta_ra_of_asc_node": 67.0832,
        "meta_arg_of_pericenter": 285.8522,
        "meta_mean_anomaly": 309.0987,
        "meta_ephemeris_type": 0,
        "meta_classification_type": "U",
        "meta_norad_cat_id": 66524,
        "meta_element_set_no": 999,
        "meta_rev_at_epoch": 463,
        "meta_bstar": -0.0040609,
        "meta_mean_motion_dot": -0.00231682,
        "meta_mean_motion_ddot": 0,
        "tle_line1": "1 66524U 25265J   25344.50003471 -.00231682  00000+0 -40609-2 0  9995",
        "tle_line2": "2 66524  42.9998  67.0832 0001999 285.8522 309.0987 15.50578756  4630"
      },
      "geometry": {
        "type": "Point",
        "coordinates": [
          22.78894089386633,
          -32.47880881657827
        ]
      }
    },
    {
      "type": "Feature",
      "properties": {
        "norad_id": 66525,
        "name": "STARLINK-35975",
        "group": "last-30-days",
        "lat": -31.48119787639101,
        "lon": 24.788279140767273,
        "alt_km": 417.07545475580173,
        "timestamp": "2025-12-10T16:57:10.415749+00:00",
        "meta_object_name": "STARLINK-35975",
        "meta_object_id": "2025-265K",
        "meta_epoch": "2025-12-10T12:00:02.998944",
        "meta_mean_motion": 15.50641484,
        "meta_eccentricity": 0.0001372,
        "meta_inclination": 42.9995,
        "meta_ra_of_asc_node": 67.0781,
        "meta_arg_of_pericenter": 272.2219,
        "meta_mean_anomaly": 324.6426,
        "meta_ephemeris_type": 0,
        "meta_classification_type": "U",
        "meta_norad_cat_id": 66525,
        "meta_element_set_no": 999,
        "meta_rev_at_epoch": 463,
        "meta_bstar": -0.002702,
        "meta_mean_motion_dot": -0.0015608,
        "meta_mean_motion_ddot": 0,
        "tle_line1": "1 66525U 25265K   25344.50003471 -.00156080  00000+0 -27020-2 0  9996",
        "tle_line2": "2 66525  42.9995  67.0781 0001372 272.2219 324.6426 15.50641484  4639"
      },
      "geometry": {
        "type": "Point",
        "coordinates": [
          24.788279140767273,
          -31.48119787639101
        ]
      }
    },
    {
      "type": "Feature",
      "properties": {
        "norad_id": 66526,
        "name": "STARLINK-35932",
        "group": "last-30-days",
        "lat": -30.471758163666482,
        "lon": 26.712080636416903,
        "alt_km": 416.97047215396015,
        "timestamp": "2025-12-10T16:57:10.415759+00:00",
        "meta_object_name": "STARLINK-35932",
        "meta_object_id": "2025-265L",
        "meta_epoch": "2025-12-10T12:00:02.998944",
        "meta_mean_motion": 15.50709195,
        "meta_eccentricity": 0.0001342,
        "meta_inclination": 42.9998,
        "meta_ra_of_asc_node": 67.0742,
        "meta_arg_of_pericenter": 274.3413,
        "meta_mean_anomaly": 324.4312,
        "meta_ephemeris_type": 0,
        "meta_classification_type": "U",
        "meta_norad_cat_id": 66526,
        "meta_element_set_no": 999,
        "meta_rev_at_epoch": 452,
        "meta_bstar": -0.0048468,
        "meta_mean_motion_dot": -0.0027616,
        "meta_mean_motion_ddot": 0,
        "tle_line1": "1 66526U 25265L   25344.50003471 -.00276160  00000+0 -48468-2 0  9998",
        "tle_line2": "2 66526  42.9998  67.0742 0001342 274.3413 324.4312 15.50709195  4520"
      },
      "geometry": {
        "type": "Point",
        "coordinates": [
          26.712080636416903,
          -30.471758163666482
        ]
      }
    },
    {
      "type": "Feature",
      "properties": {
        "norad_id": 66527,
        "name": "STARLINK-35935",
        "group": "last-30-days",
        "lat": -29.45416831464735,
        "lon": 28.559476550820907,
        "alt_km": 417.0185649798068,
        "timestamp": "2025-12-10T16:57:10.415768+00:00",
        "meta_object_name": "STARLINK-35935",
        "meta_object_id": "2025-265M",
        "meta_epoch": "2025-12-10T12:00:02.998944",
        "meta_mean_motion": 15.5066886,
        "meta_eccentricity": 0.0001265,
        "meta_inclination": 42.9995,
        "meta_ra_of_asc_node": 67.0697,
        "meta_arg_of_pericenter": 272.7018,
        "meta_mean_anomaly": 327.9915,
        "meta_ephemeris_type": 0,
        "meta_classification_type": "U",
        "meta_norad_cat_id": 66527,
        "meta_element_set_no": 999,
        "meta_rev_at_epoch": 463,
        "meta_bstar": -0.0036328,
        "meta_mean_motion_dot": -0.00208548,
        "meta_mean_motion_ddot": 0,
        "tle_line1": "1 66527U 25265M   25344.50003471 -.00208548  00000+0 -36328-2 0  9996",
        "tle_line2": "2 66527  42.9995  67.0697 0001265 272.7018 327.9915 15.50668860  4636"
      },
      "geometry": {
        "type": "Point",
        "coordinates": [
          28.559476550820907,
          -29.45416831464735
        ]
      }
    }
  ]
}